NORAD_CAT_ID,OBJECT_NAME,OBJECT_TYPE,EPOCH,MEAN_MOTION,ECCENTRICITY,INCLINATION,RA_OF_ASC_NODE,ARG_OF_PERICENTER,MEAN_ANOMALY,BSTAR,MEAN_MOTION_DOT,MEAN_MOTION_DDOT,TLE_LINE0,TLE_LINE1,TLE_LINE2,SEMIMAJOR_AXIS,PERIOD,APOGEE,PERIGEE,DECAYED
55439.0,STARLINK-5634,PAYLOAD,2024-04-15 21:35:37,14.98312593,0.0002661,70.0026,51.3024,256.95,103.1362,0.00031574,3.675e-05,0.0,0 STARLINK-5634,1 55439U 23014BA  24106.89973946  .00003675  00000-0  31574-3 0  9998,2 55439  70.0026  51.3024 0002661 256.9500 103.1362 14.98312593 67295,6950.247,96.108,573.961,570.262,0.0
55439.0,STARLINK-5634,PAYLOAD,2024-04-16 04:00:09,14.98331338,0.0002607,70.0022,50.6301,247.0859,113.0025,1.681e-05,1.08e-06,0.0,0 STARLINK-5634,1 55439U 23014BA  24107.16677757  .00000108  00000-0  16810-4 0  9995,2 55439  70.0022  50.6301 0002607 247.0859 113.0025 14.98331338 66393,6950.189,96.107,573.866,570.242,0.0
55439.0,STARLINK-5634,PAYLOAD,2024-04-16 13:36:57,14.98339665,0.0002872,70.0012,49.6191,270.5278,89.5552,2.817e-05,2.43e-06,0.0,0 STARLINK-5634,1 55439U 23014BA  24107.56733121  .00000243  00000-0  28170-4 0  9999,2 55439  70.0012  49.6191 0002872 270.5278  89.5552 14.98339665 67391,6950.163,96.106,574.024,570.032,0.0
55439.0,STARLINK-5634,PAYLOAD,2024-04-16 21:37:37,14.98335895,0.000293,70.0013,48.7771,267.8859,92.1965,6.6798e-05,7.04e-06,0.0,0 STARLINK-5634,1 55439U 23014BA  24107.90113167  .00000704  00000-0  66798-4 0  9999,2 55439  70.0013  48.7771 0002930 267.8859  92.1965 14.98335895 67440,6950.175,96.107,574.076,570.003,0.0
55439.0,STARLINK-5634,PAYLOAD,2024-04-17 04:02:09,14.98347642,0.0002834,70.0014,48.104,261.5995,98.4843,0.00016943,1.93e-05,0.0,0 STARLINK-5634,1 55439U 23014BA  24108.16815986  .00001930  00000-0  16943-3 0  9994,2 55439  70.0014  48.1040 0002834 261.5995  98.4843 14.98347642 66546,6950.138,96.106,573.973,570.034,0.0
55439.0,STARLINK-5634,PAYLOAD,2024-04-17 05:38:16,14.98350328,0.000283,70.0017,47.9367,262.5332,97.5506,0.00018655,2.135e-05,0.0,0 STARLINK-5634,1 55439U 23014BA  24108.23491690  .00002135  00000-0  18655-3 0  9994,2 55439  70.0017  47.9367 0002830 262.5332  97.5506 14.98350328 67496,6950.13,96.106,573.962,570.028,0.0
55439.0,STARLINK-5634,PAYLOAD,2024-04-17 20:03:31,14.98319889,0.0002684,70.0018,46.4222,277.3953,82.6901,-4.8891e-05,-6.76e-06,0.0,0 STARLINK-5634,1 55439U 23014BA  24108.83578448 -.00000676  00000-0 -48891-4 0  9993,2 55439  70.0018  46.4222 0002684 277.3953  82.6901 14.98319889 66648,6950.224,96.108,573.955,570.224,0.0
55439.0,STARLINK-5634,PAYLOAD,2024-04-17 21:39:40,14.9831365,0.0003393,70.0011,46.2538,289.1746,70.9046,-9.5328e-05,-1.23e-05,0.0,0 STARLINK-5634,1 55439U 23014BA  24108.90255055 -.00001230  00000-0 -95328-4 0  9991,2 55439  70.0011  46.2538 0003393 289.1746  70.9046 14.98313650 67593,6950.243,96.108,574.467,569.75,0.0
55439.0,STARLINK-5634,PAYLOAD,2024-04-18 04:04:12,14.98315755,0.0003324,70.0009,45.5797,282.8291,77.2497,-0.00015727,-1.968e-05,0.0,0 STARLINK-5634,1 55439U 23014BA  24109.16959259 -.00001968  00000-0 -15727-3 0  9999,2 55439  70.0009  45.5797 0003324 282.8291  77.2497 14.98315755 66696,6950.237,96.108,574.412,569.792,0.0
55439.0,STARLINK-5634,PAYLOAD,2024-04-18 05:40:20,14.98317102,0.0003181,70.0009,45.4111,269.7118,90.3677,-0.00012794,-1.619e-05,0.0,0 STARLINK-5634,1 55439U 23014BA  24109.23635035 -.00001619  00000-0 -12794-3 0  9994,2 55439  70.0009  45.4111 0003181 269.7118  90.3677 14.98317102 67648,6950.233,96.108,574.309,569.887,0.0
55439.0,STARLINK-5634,PAYLOAD,2024-04-18 20:05:30,14.98348671,0.0003027,70.0017,43.8945,276.4115,83.6699,0.00013193,1.482e-05,0.0,0 STARLINK-5634,1 55439U 23014BA  24109.83716176  .00001482  00000-0  13193-3 0  9996,2 55439  70.0017  43.8945 0003027 276.4115  83.6699 14.98348671 66794,6950.135,96.106,574.104,569.896,0.0
55439.0,STARLINK-5634,PAYLOAD,2024-04-18 21:41:39,14.98343828,0.0003406,70.0012,43.7282,279.4607,80.6167,0.00011466,1.276e-05,0.0,0 STARLINK-5634,1 55439U 23014BA  24109.90392475  .00001276  00000-0  11466-3 0  9998,2 55439  70.0012  43.7282 0003406 279.4607  80.6167 14.98343828 67744,6950.15,96.106,574.382,569.648,0.0
55439.0,STARLINK-5634,PAYLOAD,2024-04-19 04:06:12,14.98326461,0.000316,70.0015,43.0557,257.5929,102.4877,-0.00023377,-2.881e-05,0.0,0 STARLINK-5634,1 55439U 23014BA  24110.17098137 -.00002881  00000-0 -23377-3 0  9996,2 55439  70.0015  43.0557 0003160 257.5929 102.4877 14.98326461 66841,6950.204,96.107,574.265,569.873,0.0
55439.0,STARLINK-5634,PAYLOAD,2024-04-19 05:42:20,14.98326191,0.0003182,70.0015,42.8872,258.6443,101.4358,-0.00023296,-2.871e-05,0.0,0 STARLINK-5634,1 55439U 23014BA  24110.23774174 -.00002871  00000-0 -23296-3 0  9994,2 55439  70.0015  42.8872 0003182 258.6443 101.4358 14.98326191 67793,6950.205,96.107,574.281,569.858,0.0
55439.0,STARLINK-5634,PAYLOAD,2024-04-19 21:43:41,14.98318263,0.0003439,70.0011,41.1991,290.1388,69.9401,0.00026623,3.084e-05,0.0,0 STARLINK-5634,1 55439U 23014BA  24110.90534154  .00003084  00000-0  26623-3 0  9992,2 55439  70.0011  41.1991 0003439 290.1388  69.9401 14.98318263 67896,6950.229,96.108,574.484,569.704,0.0
55439.0,STARLINK-5634,PAYLOAD,2024-04-20 04:08:12,14.98332591,0.0002196,70.006,40.5349,206.705,153.3997,0.00045436,5.333e-05,0.0,0 STARLINK-5634,1 55439U 23014BA  24111.17236776  .00005333  00000-0  45436-3 0  9993,2 55439  70.0060  40.5349 0002196 206.7050 153.3997 14.98332591 66996,6950.185,96.107,573.576,570.524,0.0
55439.0,STARLINK-5634,PAYLOAD,2024-04-20 05:44:19,14.98344695,0.0002572,70.003,40.366,242.475,117.6148,0.0004966,5.839e-05,0.0,0 STARLINK-5634,1 55439U 23014BA  24111.23911863  .00005839  00000-0  49660-3 0  9991,2 55439  70.0030  40.3660 0002572 242.4750 117.6148 14.98344695 67001,6950.147,96.106,573.8,570.225,0.0
55439.0,STARLINK-5634,PAYLOAD,2024-04-20 20:09:34,14.98310961,0.0002518,70.0026,38.8469,265.7326,94.3545,6.789e-05,7.17e-06,0.0,0 STARLINK-5634,1 55439U 23014BA  24111.83998773  .00000717  00000-0  67890-4 0  9998,2 55439  70.0026  38.8469 0002518 265.7326  94.3545 14.98310961 67092,6950.252,96.108,573.867,570.367,0.0
55439.0,STARLINK-5634,PAYLOAD,2024-04-20 21:45:42,14.98311396,0.0002369,70.0033,38.678,263.1011,96.9878,9.7705e-05,1.073e-05,0.0,0 STARLINK-5634,1 55439U 23014BA  24111.90674751  .00001073  00000-0  97705-4 0  9997,2 55439  70.0033  38.6780 0002369 263.1011  96.9878 14.98311396 68047,6950.25,96.108,573.762,570.469,0.0
55439.0,STARLINK-5634,PAYLOAD,2024-04-21 04:10:15,14.9831549,0.0001847,70.0042,38.0061,260.3638,99.7313,0.00015238,1.725e-05,0.0,0 STARLINK-5634,1 55439U 23014BA  24112.17378665  .00001725  00000-0  15238-3 0  9996,2 55439  70.0042  38.0061 0001847 260.3638  99.7313 14.98315490 68085,6950.238,96.108,573.386,570.819,0.0
55439.0,STARLINK-5634,PAYLOAD,2024-04-21 20:11:35,14.983398,0.0002348,70.0029,36.3257,245.7945,114.2969,-0.000153,-1.918e-05,0.0,0 STARLINK-5634,1 55439U 23014BA  24112.84137949 -.00001918  00000-0 -15300-3 0  9994,2 55439  70.0029  36.3257 0002348 245.7945 114.2969 14.98339800 67241,6950.163,96.106,573.659,570.396,0.0
55439.0,STARLINK-5634,PAYLOAD,2024-04-21 21:47:43,14.98338879,0.0002336,70.0028,36.1565,248.8263,111.2646,-0.00014101,-1.775e-05,0.0,0 STARLINK-5634,1 55439U 23014BA  24112.90813948 -.00001775  00000-0 -14101-3 0  9990,2 55439  70.0028  36.1565 0002336 248.8263 111.2646 14.98338879 68193,6950.165,96.106,573.654,570.407,0.0
55439.0,STARLINK-5634,PAYLOAD,2024-04-22 04:12:14,14.98344304,0.0002522,70.0021,35.4813,263.2124,96.8748,-1.1436e-05,-2.29e-06,0.0,0 STARLINK-5634,1 55439U 23014BA  24113.17517226 -.00000229  00000-0 -11436-4 0  9992,2 55439  70.0021  35.4813 0002522 263.2124  96.8748 14.98344304 67299,6950.149,96.106,573.766,570.261,0.0
55439.0,STARLINK-5634,PAYLOAD,2024-04-22 20:13:36,14.9832392,0.0002395,70.004,33.8013,264.6278,95.4608,3.6634e-05,3.44e-06,0.0,0 STARLINK-5634,1 55439U 23014BA  24113.84278582  .00000344  00000-0  36634-4 0  9998,2 55439  70.0040  33.8013 0002395 264.6278  95.4608 14.98323920 67399,6950.212,96.107,573.741,570.412,0.0
55439.0,STARLINK-5634,PAYLOAD,2024-04-22 21:49:44,14.98324882,0.0002691,70.0023,33.6317,267.7573,92.3278,1.2992e-05,6.2e-07,0.0,0 STARLINK-5634,1 55439U 23014BA  24113.90954516  .00000062  00000-0  12992-4 0  9991,2 55439  70.0023  33.6317 0002691 267.7573  92.3278 14.98324882 68349,6950.209,96.107,573.944,570.203,0.0
55439.0,STARLINK-5634,PAYLOAD,2024-04-23 04:14:16,14.98329386,0.0002618,70.0017,32.9576,268.1456,91.9403,4.136e-05,4.01e-06,0.0,0 STARLINK-5634,1 55439U 23014BA  24114.17658197  .00000401  00000-0  41360-4 0  9995,2 55439  70.0017  32.9576 0002618 268.1456  91.9403 14.98329386 68388,6950.195,96.107,573.879,570.24,0.0
55439.0,STARLINK-5634,PAYLOAD,2024-04-23 20:15:37,14.98329607,0.000276,70.0012,31.2726,267.3346,92.7497,4.2587e-05,4.15e-06,0.0,0 STARLINK-5634,1 55439U 23014BA  24114.84418291  .00000415  00000-0  42587-4 0  9995,2 55439  70.0012  31.2726 0002760 267.3346  92.7497 14.98329607 67544,6950.194,96.107,573.977,570.141,0.0
55439.0,STARLINK-5634,PAYLOAD,2024-04-23 21:51:45,14.98329284,0.0002774,70.0013,31.1043,267.5083,92.5758,5.3201e-05,5.42e-06,0.0,0 STARLINK-5634,1 55439U 23014BA  24114.91094293  .00000542  00000-0  53201-4 0  9991,2 55439  70.0013  31.1043 0002774 267.5083  92.5758 14.98329284 68495,6950.195,96.107,573.988,570.132,0.0
55439.0,STARLINK-5634,PAYLOAD,2024-04-24 04:16:16,14.98340254,0.0002631,70.0013,30.4306,267.2887,92.7971,0.00017487,1.995e-05,0.0,0 STARLINK-5634,1 55439U 23014BA  24115.17797328  .00001995  00000-0  17487-3 0  9997,2 55439  70.0013  30.4306 0002631 267.2887  92.7971 14.98340254 67599,6950.161,96.106,573.855,570.198,0.0
55439.0,STARLINK-5634,PAYLOAD,2024-04-24 20:17:38,14.98327541,0.0002731,70.0007,28.7488,270.2485,89.8361,0.00010148,1.118e-05,0.0,0 STARLINK-5634,1 55439U 23014BA  24115.84558305  .00001118  00000-0  10148-3 0  9995,2 55439  70.0007  28.7488 0002731 270.2485  89.8361 14.98327541 67697,6950.2,96.107,573.964,570.167,0.0
